CALSPHERE 1             
1 00900U 64063C   22350.69117350  .00000623  00000+0  65262-3 0  9996
2 00900  90.1825  44.3185 0027438 189.5673 291.7367 13.74006557895683
CALSPHERE 2             
1 00902U 64063E   22351.15666128  .00000032  00000+0  35614-4 0  9995
2 00902  90.1971  47.5382 0017655 343.4894  74.9242 13.52730019683925
LCS 1                   
1 01361U 65034C   22350.88885387  .00000011  00000+0  39898-3 0  9997
2 01361  32.1453 332.1361 0011210 165.3416 194.7408  9.89302108 83296
TEMPSAT 1               
1 01512U 65065E   22350.65207575  .00000031  00000+0  43966-4 0  9995
2 01512  89.9232 217.2399 0068403 238.2552 176.8194 13.33463769789651
CALSPHERE 4A            
1 01520U 65065H   22351.12889517  .00000111  00000+0  19613-3 0  9999
2 01520  89.9814 129.9481 0070676 108.3222  65.6415 13.35921803792456
OPS 5712 (P/L 160)      
1 02826U 67053A   22350.86874816  .00002983  00000+0  75971-3 0  9992
2 02826  69.9276 220.8583 0001916 103.0161 257.1188 14.51566988879195
OPS 5712 (P/L 153)      
1 02874U 67053H   22351.08275525  .00000051  00000+0  75630-4 0  9999
2 02874  69.9739 333.9548 0005107  35.0006 325.1434 13.96433432828804
SURCAL 150B             
1 02909U 67053J   22351.06572999  .00004967  00000+0  92440-3 0  9998
2 02909  69.9461 200.7029 0001883 192.2759 167.8337 14.65660954890853
RIGIDSPHERE 2 (LCS 4)   
1 05398U 71067E   22351.19311333  .00000647  00000+0  21803-3 0  9996
2 05398  87.6209 332.5853 0064391 140.8147 219.7738 14.34427036690686
COSMOS 2493 (SKRL-756 1)
1 39490U 13078A   22351.15438103  .00002147  00000+0  21973-3 0  9990
2 39490  82.4189  59.0307 0016383 205.7046 154.3360 14.89996025487226
COSMOS 2494 (SKRL-756 2)
1 39491U 13078B   22351.15104266  .00002101  00000+0  20667-3 0  9990
2 39491  82.4189  52.4099 0021471 181.0948 179.0228 14.91490779487565
